[{"OBJECT_NAME":"ONEWEB-0294","OBJECT_ID":"2021-075J","EPOCH":"2026-04-19T04:05:27.089088","MEAN_MOTION":13.1244141,"ECCENTRICITY":0.0001749,"INCLINATION":87.9005,"RA_OF_ASC_NODE":2.383,"ARG_OF_PERICENTER":68.1968,"MEAN_ANOMALY":291.9347,"EPHEMERIS_TYPE":0,"CLASSIFICATION_TYPE":"U","NORAD_CAT_ID":49083,"ELEMENT_SET_NO":999,"REV_AT_EPOCH":22683,"BSTAR":1.1787e-05,"MEAN_MOTION_DOT":1.7e-07,"MEAN_MOTION_DDOT":0.0},{"OBJECT_NAME":"ONEWEB-0295","OBJECT_ID":"2021-075K","EPOCH":"2026-04-19T04:26:53.542752","MEAN_MOTION":13.17649339,"ECCENTRICITY":0.000144,"INCLINATION":87.918,"RA_OF_ASC_NODE":17.5915,"ARG_OF_PERICENTER":79.2298,"MEAN_ANOMALY":280.8996,"EPHEMERIS_TYPE":0,"CLASSIFICATION_TYPE":"U","NORAD_CAT_ID":49084,"ELEMENT_SET_NO":999,"REV_AT_EPOCH":22582,"BSTAR":0.00023463000000000002,"MEAN_MOTION_DOT":1.04e-06,"MEAN_MOTION_DDOT":0.0},{"OBJECT_NAME":"ONEWEB-0296","OBJECT_ID":"2021-075L","EPOCH":"2026-04-19T03:36:09.978336","MEAN_MOTION":13.12441999,"ECCENTRICITY":0.0001403,"INCLINATION":87.9003,"RA_OF_ASC_NODE":2.392,"ARG_OF_PERICENTER":76.4885,"MEAN_ANOMALY":283.64,"EPHEMERIS_TYPE":0,"CLASSIFICATION_TYPE":"U","NORAD_CAT_ID":49085,"ELEMENT_SET_NO":999,"REV_AT_EPOCH":22683,"BSTAR":0.0013493,"MEAN_MOTION_DOT":4.98e-06,"MEAN_MOTION_DDOT":0.0},{"OBJECT_NAME":"ONEWEB-0297","OBJECT_ID":"2021-075M","EPOCH":"2026-04-19T02:30:17.533440","MEAN_MOTION":13.12441754,"ECCENTRICITY":0.0001658,"INCLINATION":87.8996,"RA_OF_ASC_NODE":2.4202,"ARG_OF_PERICENTER":80.738,"MEAN_ANOMALY":279.3936,"EPHEMERIS_TYPE":0,"CLASSIFICATION_TYPE":"U","NORAD_CAT_ID":49086,"ELEMENT_SET_NO":999,"REV_AT_EPOCH":22743,"BSTAR":-0.00069602,"MEAN_MOTION_DOT":-2.38e-06,"MEAN_MOTION_DDOT":0.0},{"OBJECT_NAME":"ONEWEB-0298","OBJECT_ID":"2021-075N","EPOCH":"2026-04-18T15:47:44.388096","MEAN_MOTION":13.17650618,"ECCENTRICITY":0.0001814,"INCLINATION":87.9183,"RA_OF_ASC_NODE":17.6934,"ARG_OF_PERICENTER":83.953,"MEAN_ANOMALY":276.1809,"EPHEMERIS_TYPE":0,"CLASSIFICATION_TYPE":"U","NORAD_CAT_ID":49087,"ELEMENT_SET_NO":999,"REV_AT_EPOCH":22578,"BSTAR":-6.1909e-05,"MEAN_MOTION_DOT":-1.1e-07,"MEAN_MOTION_DDOT":0.0},{"OBJECT_NAME":"ONEWEB-0299","OBJECT_ID":"2021-075P","EPOCH":"2026-04-18T15:49:58.552608","MEAN_MOTION":13.17598867,"ECCENTRICITY":0.0001914,"INCLINATION":87.9195,"RA_OF_ASC_NODE":17.6679,"ARG_OF_PERICENTER":96.9144,"MEAN_ANOMALY":263.2205,"EPHEMERIS_TYPE":0,"CLASSIFICATION_TYPE":"U","NORAD_CAT_ID":49088,"ELEMENT_SET_NO":999,"REV_AT_EPOCH":22576,"BSTAR":0.02557,"MEAN_MOTION_DOT":9.944e-05,"MEAN_MOTION_DDOT":0.0},{"OBJECT_NAME":"ONEWEB-0300","OBJECT_ID":"2021-075Q","EPOCH":"2026-04-19T04:09:06.225408","MEAN_MOTION":13.12442478,"ECCENTRICITY":0.0001898,"INCLINATION":87.9006,"RA_OF_ASC_NODE":2.3794,"ARG_OF_PERICENTER":90.5148,"MEAN_ANOMALY":269.6198,"EPHEMERIS_TYPE":0,"CLASSIFICATION_TYPE":"U","NORAD_CAT_ID":49089,"ELEMENT_SET_NO":999,"REV_AT_EPOCH":22746,"BSTAR":-6.8418e-06,"MEAN_MOTION_DOT":1e-07,"MEAN_MOTION_DDOT":0.0},{"OBJECT_NAME":"ONEWEB-0301","OBJECT_ID":"2021-075R","EPOCH":"2026-04-19T03:45:56.426112","MEAN_MOTION":13.12442231,"ECCENTRICITY":0.0002039,"INCLINATION":87.9005,"RA_OF_ASC_NODE":2.3823,"ARG_OF_PERICENTER":88.0001,"MEAN_ANOMALY":272.1361,"EPHEMERIS_TYPE":0,"CLASSIFICATION_TYPE":"U","NORAD_CAT_ID":49090,"ELEMENT_SET_NO":999,"REV_AT_EPOCH":22682,"BSTAR":0.0012939000000000002,"MEAN_MOTION_DOT":4.78e-06,"MEAN_MOTION_DDOT":0.0},{"OBJECT_NAME":"ONEWEB-0302","OBJECT_ID":"2021-075S","EPOCH":"2026-04-19T03:26:24.468000","MEAN_MOTION":13.12442674,"ECCENTRICITY":0.0001624,"INCLINATION":87.9004,"RA_OF_ASC_NODE":2.3948,"ARG_OF_PERICENTER":69.8042,"MEAN_ANOMALY":290.3262,"EPHEMERIS_TYPE":0,"CLASSIFICATION_TYPE":"U","NORAD_CAT_ID":49091,"ELEMENT_SET_NO":999,"REV_AT_EPOCH":22680,"BSTAR":0.0011286,"MEAN_MOTION_DOT":4.19e-06,"MEAN_MOTION_DDOT":0.0},{"OBJECT_NAME":"ONEWEB-0304","OBJECT_ID":"2021-075T","EPOCH":"2026-04-19T03:58:56.924832","MEAN_MOTION":13.17647444,"ECCENTRICITY":0.0001667,"INCLINATION":87.9186,"RA_OF_ASC_NODE":17.5954,"ARG_OF_PERICENTER":80.2802,"MEAN_ANOMALY":279.8518,"EPHEMERIS_TYPE":0,"CLASSIFICATION_TYPE":"U","NORAD_CAT_ID":49092,"ELEMENT_SET_NO":999,"REV_AT_EPOCH":22580,"BSTAR":0.00012613,"MEAN_MOTION_DOT":6.2e-07,"MEAN_MOTION_DDOT":0.0},{"OBJECT_NAME":"ONEWEB-0305","OBJECT_ID":"2021-075U","EPOCH":"2026-04-19T00:10:31.120896","MEAN_MOTION":13.17649042,"ECCENTRICITY":0.0001454,"INCLINATION":87.9191,"RA_OF_ASC_NODE":17.6066,"ARG_OF_PERICENTER":86.3452,"MEAN_ANOMALY":273.7846,"EPHEMERIS_TYPE":0,"CLASSIFICATION_TYPE":"U","NORAD_CAT_ID":49093,"ELEMENT_SET_NO":999,"REV_AT_EPOCH":22581,"BSTAR":-0.00019247,"MEAN_MOTION_DOT":-6.2e-07,"MEAN_MOTION_DDOT":0.0},{"OBJECT_NAME":"ONEWEB-0308","OBJECT_ID":"2021-075V","EPOCH":"2026-04-19T03:16:38.826336","MEAN_MOTION":13.12443266,"ECCENTRICITY":0.0001773,"INCLINATION":87.9006,"RA_OF_ASC_NODE":2.3888,"ARG_OF_PERICENTER":79.1979,"MEAN_ANOMALY":280.9349,"EPHEMERIS_TYPE":0,"CLASSIFICATION_TYPE":"U","NORAD_CAT_ID":49094,"ELEMENT_SET_NO":999,"REV_AT_EPOCH":22681,"BSTAR":0.00067092,"MEAN_MOTION_DOT":2.54e-06,"MEAN_MOTION_DDOT":0.0},{"OBJECT_NAME":"ONEWEB-0309","OBJECT_ID":"2021-075W","EPOCH":"2026-04-19T03:54:04.874688","MEAN_MOTION":13.17651403,"ECCENTRICITY":0.0001657,"INCLINATION":87.9186,"RA_OF_ASC_NODE":17.5894,"ARG_OF_PERICENTER":66.3522,"MEAN_ANOMALY":293.7783,"EPHEMERIS_TYPE":0,"CLASSIFICATION_TYPE":"U","NORAD_CAT_ID":49095,"ELEMENT_SET_NO":999,"REV_AT_EPOCH":22580,"BSTAR":0.00034209,"MEAN_MOTION_DOT":1.46e-06,"MEAN_MOTION_DDOT":0.0},{"OBJECT_NAME":"ONEWEB-0310","OBJECT_ID":"2021-075X","EPOCH":"2026-04-19T03:38:37.166784","MEAN_MOTION":13.12443225,"ECCENTRICITY":0.0001786,"INCLINATION":87.8995,"RA_OF_ASC_NODE":2.4129,"ARG_OF_PERICENTER":78.3921,"MEAN_ANOMALY":281.7408,"EPHEMERIS_TYPE":0,"CLASSIFICATION_TYPE":"U","NORAD_CAT_ID":49096,"ELEMENT_SET_NO":999,"REV_AT_EPOCH":22744,"BSTAR":0.0015263,"MEAN_MOTION_DOT":5.62e-06,"MEAN_MOTION_DDOT":0.0},{"OBJECT_NAME":"ONEWEB-0311","OBJECT_ID":"2021-075Y","EPOCH":"2026-04-19T04:03:48.347712","MEAN_MOTION":13.17648025,"ECCENTRICITY":0.0001538,"INCLINATION":87.9193,"RA_OF_ASC_NODE":17.5844,"ARG_OF_PERICENTER":91.9066,"MEAN_ANOMALY":268.2241,"EPHEMERIS_TYPE":0,"CLASSIFICATION_TYPE":"U","NORAD_CAT_ID":49097,"ELEMENT_SET_NO":999,"REV_AT_EPOCH":22585,"BSTAR":0.00031681,"MEAN_MOTION_DOT":1.36e-06,"MEAN_MOTION_DDOT":0.0},{"OBJECT_NAME":"ONEWEB-0312","OBJECT_ID":"2021-075Z","EPOCH":"2026-04-19T04:25:39.478944","MEAN_MOTION":13.17652052,"ECCENTRICITY":0.000144,"INCLINATION":87.9183,"RA_OF_ASC_NODE":17.5957,"ARG_OF_PERICENTER":76.8411,"MEAN_ANOMALY":283.2881,"EPHEMERIS_TYPE":0,"CLASSIFICATION_TYPE":"U","NORAD_CAT_ID":49098,"ELEMENT_SET_NO":999,"REV_AT_EPOCH":22583,"BSTAR":0.00016811000000000002,"MEAN_MOTION_DOT":7.8e-07,"MEAN_MOTION_DDOT":0.0},{"OBJECT_NAME":"ONEWEB-0313","OBJECT_ID":"2021-075AA","EPOCH":"2026-04-19T02:43:25.143744","MEAN_MOTION":13.17647474,"ECCENTRICITY":0.0001701,"INCLINATION":87.9182,"RA_OF_ASC_NODE":17.6168,"ARG_OF_PERICENTER":80.5044,"MEAN_ANOMALY":279.6279,"EPHEMERIS_TYPE":0,"CLASSIFICATION_TYPE":"U","NORAD_CAT_ID":49099,"ELEMENT_SET_NO":999,"REV_AT_EPOCH":22581,"BSTAR":8.4023e-05,"MEAN_MOTION_DOT":4.5e-07,"MEAN_MOTION_DDOT":0.0}]