ONEWEB-0294             
1 49083U 21075J   26109.17045242  .00000017  00000+0  11787-4 0  9997
2 49083  87.9005   2.3830 0001749  68.1968 291.9347 13.12441410226837
ONEWEB-0295             
1 49084U 21075K   26109.18534193  .00000104  00000+0  23463-3 0  9997
2 49084  87.9180  17.5915 0001440  79.2298 280.8996 13.17649339225821
ONEWEB-0296             
1 49085U 21075L   26109.15011549  .00000498  00000+0  13493-2 0  9997
2 49085  87.9003   2.3920 0001403  76.4885 283.6400 13.12441999226834
ONEWEB-0297             
1 49086U 21075M   26109.10436960 -.00000238  00000+0 -69602-3 0  9999
2 49086  87.8996   2.4202 0001658  80.7380 279.3936 13.12441754227431
ONEWEB-0298             
1 49087U 21075N   26108.65815264 -.00000011  00000+0 -61909-4 0  9999
2 49087  87.9183  17.6934 0001814  83.9530 276.1809 13.17650618225783
ONEWEB-0299             
1 49088U 21075P   26108.65970547  .00009944  00000+0  25570-1 0  9999
2 49088  87.9195  17.6679 0001914  96.9144 263.2205 13.17598867225761
ONEWEB-0300             
1 49089U 21075Q   26109.17298872  .00000010  00000+0 -68418-5 0  9990
2 49089  87.9006   2.3794 0001898  90.5148 269.6198 13.12442478227468
ONEWEB-0301             
1 49090U 21075R   26109.15690308  .00000478  00000+0  12939-2 0  9991
2 49090  87.9005   2.3823 0002039  88.0001 272.1361 13.12442231226827
ONEWEB-0302             
1 49091U 21075S   26109.14333875  .00000419  00000+0  11286-2 0  9993
2 49091  87.9004   2.3948 0001624  69.8042 290.3262 13.12442674226807
ONEWEB-0304             
1 49092U 21075T   26109.16593663  .00000062  00000+0  12613-3 0  9999
2 49092  87.9186  17.5954 0001667  80.2802 279.8518 13.17647444225804
ONEWEB-0305             
1 49093U 21075U   26109.00730464 -.00000062  00000+0 -19247-3 0  9997
2 49093  87.9191  17.6066 0001454  86.3452 273.7846 13.17649042225812
ONEWEB-0308             
1 49094U 21075V   26109.13656049  .00000254  00000+0  67092-3 0  9990
2 49094  87.9006   2.3888 0001773  79.1979 280.9349 13.12443266226813
ONEWEB-0309             
1 49095U 21075W   26109.16255642  .00000146  00000+0  34209-3 0  9992
2 49095  87.9186  17.5894 0001657  66.3522 293.7783 13.17651403225802
ONEWEB-0310             
1 49096U 21075X   26109.15181906  .00000562  00000+0  15263-2 0  9993
2 49096  87.8995   2.4129 0001786  78.3921 281.7408 13.12443225227442
ONEWEB-0311             
1 49097U 21075Y   26109.16930958  .00000136  00000+0  31681-3 0  9994
2 49097  87.9193  17.5844 0001538  91.9066 268.2241 13.17648025225859
ONEWEB-0312             
1 49098U 21075Z   26109.18448471  .00000078  00000+0  16811-3 0  9994
2 49098  87.9183  17.5957 0001440  76.8411 283.2881 13.17652052225832
ONEWEB-0313             
1 49099U 21075AA  26109.11348546  .00000045  00000+0  84023-4 0  9995
2 49099  87.9182  17.6168 0001701  80.5044 279.6279 13.17647474225811
